[{"OBJECT_NAME":"SES-2","OBJECT_ID":"2011-049A","EPOCH":"2026-04-05T14:02:36.120192","MEAN_MOTION":1.00272153,"ECCENTRICITY":0.0002963,"INCLINATION":0.0567,"RA_OF_ASC_NODE":68.3839,"ARG_OF_PERICENTER":310.0174,"MEAN_ANOMALY":299.1355,"EPHEMERIS_TYPE":0,"CLASSIFICATION_TYPE":"U","NORAD_CAT_ID":37809,"ELEMENT_SET_NO":999,"REV_AT_EPOCH":5323,"BSTAR":0,"MEAN_MOTION_DOT":-1.94e-6,"MEAN_MOTION_DDOT":0},{"OBJECT_NAME":"QUETZSAT 1","OBJECT_ID":"2011-054A","EPOCH":"2026-04-05T19:13:28.894368","MEAN_MOTION":1.00271162,"ECCENTRICITY":0.0002306,"INCLINATION":0.0513,"RA_OF_ASC_NODE":61.3963,"ARG_OF_PERICENTER":316.233,"MEAN_ANOMALY":27.843,"EPHEMERIS_TYPE":0,"CLASSIFICATION_TYPE":"U","NORAD_CAT_ID":37826,"ELEMENT_SET_NO":999,"REV_AT_EPOCH":4914,"BSTAR":0,"MEAN_MOTION_DOT":-2.4e-6,"MEAN_MOTION_DDOT":0},{"OBJECT_NAME":"SES-4","OBJECT_ID":"2012-007A","EPOCH":"2026-04-05T19:29:12.384960","MEAN_MOTION":1.00271837,"ECCENTRICITY":0.0002305,"INCLINATION":0.0286,"RA_OF_ASC_NODE":64.235,"ARG_OF_PERICENTER":318.8514,"MEAN_ANOMALY":81.3271,"EPHEMERIS_TYPE":0,"CLASSIFICATION_TYPE":"U","NORAD_CAT_ID":38087,"ELEMENT_SET_NO":999,"REV_AT_EPOCH":5150,"BSTAR":0,"MEAN_MOTION_DOT":-1.66e-6,"MEAN_MOTION_DDOT":0},{"OBJECT_NAME":"SES-5","OBJECT_ID":"2012-036A","EPOCH":"2026-04-05T16:11:29.739264","MEAN_MOTION":1.00273023,"ECCENTRICITY":0.0002095,"INCLINATION":0.0591,"RA_OF_ASC_NODE":303.5934,"ARG_OF_PERICENTER":73.8979,"MEAN_ANOMALY":64.3242,"EPHEMERIS_TYPE":0,"CLASSIFICATION_TYPE":"U","NORAD_CAT_ID":38652,"ELEMENT_SET_NO":999,"REV_AT_EPOCH":4372,"BSTAR":0,"MEAN_MOTION_DOT":3.5e-7,"MEAN_MOTION_DDOT":0},{"OBJECT_NAME":"ASTRA 2F","OBJECT_ID":"2012-051A","EPOCH":"2026-04-05T19:43:26.021280","MEAN_MOTION":1.00270195,"ECCENTRICITY":0.0001317,"INCLINATION":0.0633,"RA_OF_ASC_NODE":254.7265,"ARG_OF_PERICENTER":32.7424,"MEAN_ANOMALY":230.7017,"EPHEMERIS_TYPE":0,"CLASSIFICATION_TYPE":"U","NORAD_CAT_ID":38778,"ELEMENT_SET_NO":999,"REV_AT_EPOCH":4041,"BSTAR":0,"MEAN_MOTION_DOT":1.52e-6,"MEAN_MOTION_DDOT":0},{"OBJECT_NAME":"SES-6","OBJECT_ID":"2013-026A","EPOCH":"2026-04-05T19:23:57.888960","MEAN_MOTION":1.00272797,"ECCENTRICITY":0.0002724,"INCLINATION":0.0367,"RA_OF_ASC_NODE":293.0106,"ARG_OF_PERICENTER":85.8937,"MEAN_ANOMALY":65.6973,"EPHEMERIS_TYPE":0,"CLASSIFICATION_TYPE":"U","NORAD_CAT_ID":39172,"ELEMENT_SET_NO":999,"REV_AT_EPOCH":4699,"BSTAR":0,"MEAN_MOTION_DOT":-2.59e-6,"MEAN_MOTION_DDOT":0},{"OBJECT_NAME":"O3B FM5","OBJECT_ID":"2013-031A","EPOCH":"2026-04-05T16:18:47.827872","MEAN_MOTION":5.0011655,"ECCENTRICITY":0.0003225,"INCLINATION":0.1019,"RA_OF_ASC_NODE":5.5448,"ARG_OF_PERICENTER":359.3404,"MEAN_ANOMALY":355.1169,"EPHEMERIS_TYPE":0,"CLASSIFICATION_TYPE":"U","NORAD_CAT_ID":39188,"ELEMENT_SET_NO":999,"REV_AT_EPOCH":23341,"BSTAR":0,"MEAN_MOTION_DOT":-2.5e-7,"MEAN_MOTION_DDOT":0},{"OBJECT_NAME":"O3B FM4","OBJECT_ID":"2013-031B","EPOCH":"2026-03-27T09:41:53.263680","MEAN_MOTION":5.00115128,"ECCENTRICITY":0.00050688,"INCLINATION":0.0535,"RA_OF_ASC_NODE":345.5776,"ARG_OF_PERICENTER":27.4764,"MEAN_ANOMALY":346.9547,"EPHEMERIS_TYPE":0,"CLASSIFICATION_TYPE":"U","NORAD_CAT_ID":39189,"ELEMENT_SET_NO":999,"REV_AT_EPOCH":23295,"BSTAR":0,"MEAN_MOTION_DOT":-2.8e-7,"MEAN_MOTION_DDOT":0},{"OBJECT_NAME":"O3B FM2","OBJECT_ID":"2013-031C","EPOCH":"2026-04-04T20:45:47.682144","MEAN_MOTION":5.00116057,"ECCENTRICITY":0.00027707,"INCLINATION":0.0514,"RA_OF_ASC_NODE":339.0477,"ARG_OF_PERICENTER":33.0431,"MEAN_ANOMALY":347.9145,"EPHEMERIS_TYPE":0,"CLASSIFICATION_TYPE":"U","NORAD_CAT_ID":39190,"ELEMENT_SET_NO":999,"REV_AT_EPOCH":23344,"BSTAR":0,"MEAN_MOTION_DOT":-2.6e-7,"MEAN_MOTION_DDOT":0},{"OBJECT_NAME":"O3B PFM","OBJECT_ID":"2013-031D","EPOCH":"2026-04-05T01:53:57.706368","MEAN_MOTION":5.00116068,"ECCENTRICITY":0.00054,"INCLINATION":0.0701,"RA_OF_ASC_NODE":3.8026,"ARG_OF_PERICENTER":16.8934,"MEAN_ANOMALY":339.3246,"EPHEMERIS_TYPE":0,"CLASSIFICATION_TYPE":"U","NORAD_CAT_ID":39191,"ELEMENT_SET_NO":999,"REV_AT_EPOCH":23301,"BSTAR":0,"MEAN_MOTION_DOT":-2.5e-7,"MEAN_MOTION_DDOT":0},{"OBJECT_NAME":"ASTRA 2E","OBJECT_ID":"2013-056A","EPOCH":"2026-04-05T19:43:33.507840","MEAN_MOTION":1.00272747,"ECCENTRICITY":0.0002316,"INCLINATION":0.0887,"RA_OF_ASC_NODE":44.5131,"ARG_OF_PERICENTER":329.6791,"MEAN_ANOMALY":144.2941,"EPHEMERIS_TYPE":0,"CLASSIFICATION_TYPE":"U","NORAD_CAT_ID":39285,"ELEMENT_SET_NO":999,"REV_AT_EPOCH":4569,"BSTAR":0,"MEAN_MOTION_DOT":1.52e-6,"MEAN_MOTION_DDOT":0},{"OBJECT_NAME":"SES-8","OBJECT_ID":"2013-071A","EPOCH":"2026-04-05T21:04:38.928576","MEAN_MOTION":1.00271814,"ECCENTRICITY":0.0002467,"INCLINATION":0.0188,"RA_OF_ASC_NODE":255.931,"ARG_OF_PERICENTER":150.3704,"MEAN_ANOMALY":199.0319,"EPHEMERIS_TYPE":0,"CLASSIFICATION_TYPE":"U","NORAD_CAT_ID":39460,"ELEMENT_SET_NO":999,"REV_AT_EPOCH":4371,"BSTAR":0,"MEAN_MOTION_DOT":-2.68e-6,"MEAN_MOTION_DDOT":0},{"OBJECT_NAME":"ASTRA 5B","OBJECT_ID":"2014-011B","EPOCH":"2026-04-05T19:42:11.140128","MEAN_MOTION":1.00273659,"ECCENTRICITY":0.0003338,"INCLINATION":0.0718,"RA_OF_ASC_NODE":307.4353,"ARG_OF_PERICENTER":49.8929,"MEAN_ANOMALY":155.822,"EPHEMERIS_TYPE":0,"CLASSIFICATION_TYPE":"U","NORAD_CAT_ID":39617,"ELEMENT_SET_NO":999,"REV_AT_EPOCH":4394,"BSTAR":0,"MEAN_MOTION_DOT":1.39e-6,"MEAN_MOTION_DDOT":0},{"OBJECT_NAME":"O3B FM3","OBJECT_ID":"2014-038A","EPOCH":"2026-04-05T17:53:27.030336","MEAN_MOTION":5.00115655,"ECCENTRICITY":0.0001054,"INCLINATION":0.0526,"RA_OF_ASC_NODE":354.7098,"ARG_OF_PERICENTER":87.511,"MEAN_ANOMALY":277.79,"EPHEMERIS_TYPE":0,"CLASSIFICATION_TYPE":"U","NORAD_CAT_ID":40079,"ELEMENT_SET_NO":999,"REV_AT_EPOCH":20942,"BSTAR":0,"MEAN_MOTION_DOT":-2.5e-7,"MEAN_MOTION_DDOT":0},{"OBJECT_NAME":"O3B FM7","OBJECT_ID":"2014-038B","EPOCH":"2026-04-05T16:35:49.679808","MEAN_MOTION":5.00115674,"ECCENTRICITY":0.0004257,"INCLINATION":0.0566,"RA_OF_ASC_NODE":348.1143,"ARG_OF_PERICENTER":12.2324,"MEAN_ANOMALY":359.6524,"EPHEMERIS_TYPE":0,"CLASSIFICATION_TYPE":"U","NORAD_CAT_ID":40080,"ELEMENT_SET_NO":999,"REV_AT_EPOCH":21425,"BSTAR":0,"MEAN_MOTION_DOT":-2.5e-7,"MEAN_MOTION_DDOT":0},{"OBJECT_NAME":"O3B FM6","OBJECT_ID":"2014-038C","EPOCH":"2026-04-05T12:26:51.809280","MEAN_MOTION":5.00115755,"ECCENTRICITY":0.0002639,"INCLINATION":0.0536,"RA_OF_ASC_NODE":351.8729,"ARG_OF_PERICENTER":21.9506,"MEAN_ANOMALY":346.1826,"EPHEMERIS_TYPE":0,"CLASSIFICATION_TYPE":"U","NORAD_CAT_ID":40081,"ELEMENT_SET_NO":999,"REV_AT_EPOCH":21418,"BSTAR":0,"MEAN_MOTION_DOT":-2.5e-7,"MEAN_MOTION_DDOT":0},{"OBJECT_NAME":"O3B FM8","OBJECT_ID":"2014-038D","EPOCH":"2026-04-05T18:31:27.396768","MEAN_MOTION":5.00116051,"ECCENTRICITY":0.000268,"INCLINATION":0.0542,"RA_OF_ASC_NODE":350.8846,"ARG_OF_PERICENTER":26.7326,"MEAN_ANOMALY":342.391,"EPHEMERIS_TYPE":0,"CLASSIFICATION_TYPE":"U","NORAD_CAT_ID":40082,"ELEMENT_SET_NO":999,"REV_AT_EPOCH":21431,"BSTAR":0,"MEAN_MOTION_DOT":-2.5e-7,"MEAN_MOTION_DDOT":0}]
