SES-2                   
1 37809U 11049A   26095.58514028 -.00000194  00000+0  00000+0 0  9990
2 37809   0.0567  68.3839 0002963 310.0174 299.1355  1.00272153 53238
QUETZSAT 1              
1 37826U 11054A   26095.80102887 -.00000240  00000+0  00000+0 0  9998
2 37826   0.0513  61.3963 0002306 316.2330  27.8430  1.00271162 49146
SES-4                   
1 38087U 12007A   26095.81194890 -.00000166  00000+0  00000+0 0  9990
2 38087   0.0286  64.2350 0002305 318.8514  81.3271  1.00271837 51506
SES-5                   
1 38652U 12036A   26095.67464976  .00000035  00000+0  00000+0 0  9993
2 38652   0.0591 303.5934 0002095  73.8979  64.3242  1.00273023 43722
ASTRA 2F                
1 38778U 12051A   26095.82182895  .00000152  00000+0  00000+0 0  9993
2 38778   0.0633 254.7265 0001317  32.7424 230.7017  1.00270195 40416
SES-6                   
1 39172U 13026A   26095.80830890 -.00000259  00000+0  00000+0 0  9997
2 39172   0.0367 293.0106 0002724  85.8937  65.6973  1.00272797 46995
O3B FM5                 
1 39188U 13031A   26095.67972023 -.00000025  00000+0  00000+0 0  9991
2 39188   0.1019   5.5448 0003225 359.3404 355.1169  5.00116550233414
O3B FM4                 
1 39189U 13031B   26086.40408870 -.00000028  00000+0  00000+0 0  9990
2 39189   0.0535 345.5776 0005068  27.4764 346.9547  5.00115128232953
O3B FM2                 
1 39190U 13031C   26094.86513521 -.00000026  00000+0  00000+0 0  9999
2 39190   0.0514 339.0477 0002770  33.0431 347.9145  5.00116057233441
O3B PFM                 
1 39191U 13031D   26095.07914012 -.00000025  00000+0  00000+0 0  9993
2 39191   0.0701   3.8026 0005400  16.8934 339.3246  5.00116068233018
ASTRA 2E                
1 39285U 13056A   26095.82191560  .00000152  00000+0  00000+0 0  9992
2 39285   0.0887  44.5131 0002316 329.6791 144.2941  1.00272747 45698
SES-8                   
1 39460U 13071A   26095.87822834 -.00000268  00000+0  00000+0 0  9993
2 39460   0.0188 255.9310 0002467 150.3704 199.0319  1.00271814 43716
ASTRA 5B                
1 39617U 14011B   26095.82096227  .00000139  00000+0  00000+0 0  9992
2 39617   0.0718 307.4353 0003338  49.8929 155.8220  1.00273659 43943
O3B FM3                 
1 40079U 14038A   26095.74545174 -.00000025  00000+0  00000+0 0  9991
2 40079   0.0526 354.7098 0001054  87.5110 277.7900  5.00115655209420
O3B FM7                 
1 40080U 14038B   26095.69154722 -.00000025  00000+0  00000+0 0  9992
2 40080   0.0566 348.1143 0004257  12.2324 359.6524  5.00115674214254
O3B FM6                 
1 40081U 14038C   26095.51865520 -.00000025  00000+0  00000+0 0  9999
2 40081   0.0536 351.8729 0002639  21.9506 346.1826  5.00115755214182
O3B FM8                 
1 40082U 14038D   26095.77184487 -.00000025  00000+0  00000+0 0  9994
2 40082   0.0542 350.8846 0002680  26.7326 342.3910  5.00116051214315
